{"fetched_at":"2026-07-16T17:46:34.847Z","source":"https://celestrak.org/NORAD/elements/gp.php?NAME=HULIANWANG&FORMAT=JSON","constellation":"guowang","records":[{"OBJECT_NAME":"HULIANWANG DIGUI-12","OBJECT_ID":"2025-030B","EPOCH":"2026-07-16T06:18:43.293312","CLASSIFICATION_TYPE":"U","MEAN_MOTION":13.29322271,"ECCENTRICITY":0.00009469,"INCLINATION":50.0015,"RA_OF_ASC_NODE":131.6687,"ARG_OF_PERICENTER":275.9238,"MEAN_ANOMALY":84.1526,"EPHEMERIS_TYPE":0,"NORAD_CAT_ID":62972,"ELEMENT_SET_NO":999,"REV_AT_EPOCH":6972,"BSTAR":0.00003765044,"MEAN_MOTION_DOT":-0.00000107,"MEAN_MOTION_DDOT":0},{"OBJECT_NAME":"HULIANWANG DIGUI-13","OBJECT_ID":"2025-030C","EPOCH":"2026-07-16T05:54:31.865760","CLASSIFICATION_TYPE":"U","MEAN_MOTION":13.29324433,"ECCENTRICITY":0.00007615,"INCLINATION":50.0018,"RA_OF_ASC_NODE":131.5966,"ARG_OF_PERICENTER":276.3389,"MEAN_ANOMALY":83.7396,"EPHEMERIS_TYPE":0,"NORAD_CAT_ID":62973,"ELEMENT_SET_NO":999,"REV_AT_EPOCH":6972,"BSTAR":0.000033308451,"MEAN_MOTION_DOT":-0.00000109,"MEAN_MOTION_DDOT":0},{"OBJECT_NAME":"HULIANWANG DIGUI-14","OBJECT_ID":"2025-030D","EPOCH":"2026-07-16T05:18:31.953888","CLASSIFICATION_TYPE":"U","MEAN_MOTION":13.29327477,"ECCENTRICITY":0.00007657,"INCLINATION":50.0024,"RA_OF_ASC_NODE":131.4895,"ARG_OF_PERICENTER":279.9743,"MEAN_ANOMALY":80.1042,"EPHEMERIS_TYPE":0,"NORAD_CAT_ID":62974,"ELEMENT_SET_NO":999,"REV_AT_EPOCH":6972,"BSTAR":0.000016217671,"MEAN_MOTION_DOT":-0.00000117,"MEAN_MOTION_DDOT":0},{"OBJECT_NAME":"HULIANWANG DIGUI-15","OBJECT_ID":"2025-030E","EPOCH":"2026-07-16T05:42:32.346432","CLASSIFICATION_TYPE":"U","MEAN_MOTION":13.29324532,"ECCENTRICITY":0.00008512,"INCLINATION":50.0019,"RA_OF_ASC_NODE":131.5564,"ARG_OF_PERICENTER":279.7219,"MEAN_ANOMALY":80.3557,"EPHEMERIS_TYPE":0,"NORAD_CAT_ID":62975,"ELEMENT_SET_NO":999,"REV_AT_EPOCH":6972,"BSTAR":0.000060536068,"MEAN_MOTION_DOT":-9.6e-7,"MEAN_MOTION_DDOT":0},{"OBJECT_NAME":"HULIANWANG DIGUI-16","OBJECT_ID":"2025-030F","EPOCH":"2026-07-16T05:06:37.036224","CLASSIFICATION_TYPE":"U","MEAN_MOTION":13.29325589,"ECCENTRICITY":0.00007288,"INCLINATION":50.0041,"RA_OF_ASC_NODE":131.5163,"ARG_OF_PERICENTER":278.3606,"MEAN_ANOMALY":81.7184,"EPHEMERIS_TYPE":0,"NORAD_CAT_ID":62976,"ELEMENT_SET_NO":999,"REV_AT_EPOCH":6972,"BSTAR":0.00003188894,"MEAN_MOTION_DOT":-0.00000109,"MEAN_MOTION_DDOT":0},{"OBJECT_NAME":"HULIANWANG DIGUI-17","OBJECT_ID":"2025-030G","EPOCH":"2026-07-16T04:54:26.727264","CLASSIFICATION_TYPE":"U","MEAN_MOTION":13.29325677,"ECCENTRICITY":0.00008452,"INCLINATION":50.0054,"RA_OF_ASC_NODE":131.5241,"ARG_OF_PERICENTER":270.5681,"MEAN_ANOMALY":89.5095,"EPHEMERIS_TYPE":0,"NORAD_CAT_ID":62977,"ELEMENT_SET_NO":999,"REV_AT_EPOCH":6972,"BSTAR":0.000034708751,"MEAN_MOTION_DOT":-0.00000108,"MEAN_MOTION_DDOT":0},{"OBJECT_NAME":"HULIANWANG DIGUI-18","OBJECT_ID":"2025-030H","EPOCH":"2026-07-16T06:30:38.852928","CLASSIFICATION_TYPE":"U","MEAN_MOTION":13.29327625,"ECCENTRICITY":0.0000882,"INCLINATION":50.0058,"RA_OF_ASC_NODE":131.2255,"ARG_OF_PERICENTER":270.462,"MEAN_ANOMALY":89.6151,"EPHEMERIS_TYPE":0,"NORAD_CAT_ID":62978,"ELEMENT_SET_NO":999,"REV_AT_EPOCH":6973,"BSTAR":0.000039946934,"MEAN_MOTION_DOT":-0.00000105,"MEAN_MOTION_DDOT":0},{"OBJECT_NAME":"HULIANWANG DIGUI-19","OBJECT_ID":"2025-030J","EPOCH":"2026-07-16T05:30:41.772960","CLASSIFICATION_TYPE":"U","MEAN_MOTION":13.29319064,"ECCENTRICITY":0.00007722,"INCLINATION":50.0043,"RA_OF_ASC_NODE":131.6109,"ARG_OF_PERICENTER":268.8639,"MEAN_ANOMALY":91.2144,"EPHEMERIS_TYPE":0,"NORAD_CAT_ID":62979,"ELEMENT_SET_NO":999,"REV_AT_EPOCH":6972,"BSTAR":0.000022707421,"MEAN_MOTION_DOT":-0.00000113,"MEAN_MOTION_DDOT":0},{"OBJECT_NAME":"HULIANWANG DIGUI-20","OBJECT_ID":"2025-086A","EPOCH":"2026-07-16T06:17:11.952096","CLASSIFICATION_TYPE":"U","MEAN_MOTION":13.24411574,"ECCENTRICITY":0.00020498,"INCLINATION":86.5067,"RA_OF_ASC_NODE":303.3406,"ARG_OF_PERICENTER":112.2299,"MEAN_ANOMALY":247.9053,"EPHEMERIS_TYPE":0,"NORAD_CAT_ID":63687,"ELEMENT_SET_NO":999,"REV_AT_EPOCH":5872,"BSTAR":0.000061034656,"MEAN_MOTION_DOT":4.1e-7,"MEAN_MOTION_DDOT":0},{"OBJECT_NAME":"HULIANWANG DIGUI-21","OBJECT_ID":"2025-086B","EPOCH":"2026-07-16T06:28:07.237344","CLASSIFICATION_TYPE":"U","MEAN_MOTION":13.24410219,"ECCENTRICITY":0.00019847,"INCLINATION":86.5095,"RA_OF_ASC_NODE":303.4037,"ARG_OF_PERICENTER":115.4425,"MEAN_ANOMALY":244.6915,"EPHEMERIS_TYPE":0,"NORAD_CAT_ID":63688,"ELEMENT_SET_NO":999,"REV_AT_EPOCH":5871,"BSTAR":0.000029342876,"MEAN_MOTION_DOT":2.7e-7,"MEAN_MOTION_DDOT":0},{"OBJECT_NAME":"HULIANWANG DIGUI-22","OBJECT_ID":"2025-086C","EPOCH":"2026-07-16T06:38:57.037056","CLASSIFICATION_TYPE":"U","MEAN_MOTION":13.24410573,"ECCENTRICITY":0.0002095,"INCLINATION":86.506,"RA_OF_ASC_NODE":303.2594,"ARG_OF_PERICENTER":111.7341,"MEAN_ANOMALY":248.4016,"EPHEMERIS_TYPE":0,"NORAD_CAT_ID":63689,"ELEMENT_SET_NO":999,"REV_AT_EPOCH":5871,"BSTAR":0.000017068516,"MEAN_MOTION_DOT":2.2e-7,"MEAN_MOTION_DDOT":0},{"OBJECT_NAME":"HULIANWANG DIGUI-23","OBJECT_ID":"2025-086D","EPOCH":"2026-07-16T07:00:40.431168","CLASSIFICATION_TYPE":"U","MEAN_MOTION":13.2441029,"ECCENTRICITY":0.0002071,"INCLINATION":86.5102,"RA_OF_ASC_NODE":303.4443,"ARG_OF_PERICENTER":112.2277,"MEAN_ANOMALY":247.9077,"EPHEMERIS_TYPE":0,"NORAD_CAT_ID":63690,"ELEMENT_SET_NO":999,"REV_AT_EPOCH":5871,"BSTAR":0.000016372721,"MEAN_MOTION_DOT":2.2e-7,"MEAN_MOTION_DDOT":0},{"OBJECT_NAME":"HULIANWANG DIGUI-24","OBJECT_ID":"2025-086E","EPOCH":"2026-07-16T07:11:36.248640","CLASSIFICATION_TYPE":"U","MEAN_MOTION":13.2441098,"ECCENTRICITY":0.00020319,"INCLINATION":86.5108,"RA_OF_ASC_NODE":303.4771,"ARG_OF_PERICENTER":114.6859,"MEAN_ANOMALY":245.4487,"EPHEMERIS_TYPE":0,"NORAD_CAT_ID":63691,"ELEMENT_SET_NO":999,"REV_AT_EPOCH":5871,"BSTAR":0.000044654805,"MEAN_MOTION_DOT":3.4e-7,"MEAN_MOTION_DDOT":0},{"OBJECT_NAME":"HULIANWANG DIGUI-25","OBJECT_ID":"2025-086F","EPOCH":"2026-07-16T07:22:29.016192","CLASSIFICATION_TYPE":"U","MEAN_MOTION":13.24410323,"ECCENTRICITY":0.000198,"INCLINATION":86.5047,"RA_OF_ASC_NODE":303.2179,"ARG_OF_PERICENTER":112.1764,"MEAN_ANOMALY":247.9581,"EPHEMERIS_TYPE":0,"NORAD_CAT_ID":63692,"ELEMENT_SET_NO":999,"REV_AT_EPOCH":5871,"BSTAR":0.000079094357,"MEAN_MOTION_DOT":4.9e-7,"MEAN_MOTION_DDOT":0},{"OBJECT_NAME":"HULIANWANG DIGUI-26","OBJECT_ID":"2025-086G","EPOCH":"2026-07-16T06:49:47.985888","CLASSIFICATION_TYPE":"U","MEAN_MOTION":13.24409372,"ECCENTRICITY":0.00021967,"INCLINATION":86.5096,"RA_OF_ASC_NODE":303.4144,"ARG_OF_PERICENTER":117.9584,"MEAN_ANOMALY":242.1772,"EPHEMERIS_TYPE":0,"NORAD_CAT_ID":63693,"ELEMENT_SET_NO":999,"REV_AT_EPOCH":5871,"BSTAR":0.00002525693,"MEAN_MOTION_DOT":2.5e-7,"MEAN_MOTION_DDOT":0},{"OBJECT_NAME":"HULIANWANG DIGUI-27","OBJECT_ID":"2025-086H","EPOCH":"2026-07-16T07:33:19.355904","CLASSIFICATION_TYPE":"U","MEAN_MOTION":13.24412142,"ECCENTRICITY":0.00020446,"INCLINATION":86.5057,"RA_OF_ASC_NODE":303.262,"ARG_OF_PERICENTER":114.0345,"MEAN_ANOMALY":246.1004,"EPHEMERIS_TYPE":0,"NORAD_CAT_ID":63694,"ELEMENT_SET_NO":999,"REV_AT_EPOCH":5871,"BSTAR":0.000098383888,"MEAN_MOTION_DOT":5.7e-7,"MEAN_MOTION_DDOT":0}]}
