HULIANWANG DIGUI-12     
1 62972U 25030B   26197.26300108 -.00000107  00000+0  37650-4 0  9994
2 62972  50.0015 131.6687 0000946 275.9238  84.1526 13.29322271 69728
HULIANWANG DIGUI-13     
1 62973U 25030C   26197.24620215 -.00000109  00000+0  33308-4 0  9995
2 62973  50.0018 131.5966 0000761 276.3389  83.7396 13.29324433 69720
HULIANWANG DIGUI-14     
1 62974U 25030D   26197.22120317 -.00000117  00000+0  16218-4 0  9992
2 62974  50.0024 131.4895 0000765 279.9743  80.1042 13.29327477 69725
HULIANWANG DIGUI-15     
1 62975U 25030E   26197.23787438 -.00000096  00000+0  60536-4 0  9995
2 62975  50.0019 131.5564 0000851 279.7219  80.3557 13.29324532 69728
HULIANWANG DIGUI-16     
1 62976U 25030F   26197.21292866 -.00000109  00000+0  31889-4 0  9994
2 62976  50.0041 131.5163 0000728 278.3606  81.7184 13.29325589 69721
HULIANWANG DIGUI-17     
1 62977U 25030G   26197.20447601 -.00000108  00000+0  34709-4 0  9996
2 62977  50.0054 131.5241 0000845 270.5681  89.5095 13.29325677 69725
HULIANWANG DIGUI-18     
1 62978U 25030H   26197.27128302 -.00000105  00000+0  39947-4 0  9994
2 62978  50.0058 131.2255 0000882 270.4620  89.6151 13.29327625 69735
HULIANWANG DIGUI-19     
1 62979U 25030J   26197.22965015 -.00000113  00000+0  22707-4 0  9995
2 62979  50.0043 131.6109 0000772 268.8639  91.2144 13.29319064 69729
HULIANWANG DIGUI-20     
1 63687U 25086A   26197.26194389  .00000041  00000+0  61035-4 0  9991
2 63687  86.5067 303.3406 0002049 112.2299 247.9053 13.24411574 58728
HULIANWANG DIGUI-21     
1 63688U 25086B   26197.26952821  .00000027  00000+0  29343-4 0  9995
2 63688  86.5095 303.4037 0001984 115.4425 244.6915 13.24410219 58719
HULIANWANG DIGUI-22     
1 63689U 25086C   26197.27704904  .00000022  00000+0  17069-4 0  9991
2 63689  86.5060 303.2594 0002095 111.7341 248.4016 13.24410573 58715
HULIANWANG DIGUI-23     
1 63690U 25086D   26197.29213462  .00000022  00000+0  16373-4 0  9996
2 63690  86.5102 303.4443 0002071 112.2277 247.9077 13.24410290 58714
HULIANWANG DIGUI-24     
1 63691U 25086E   26197.29972510  .00000034  00000+0  44655-4 0  9990
2 63691  86.5108 303.4771 0002031 114.6859 245.4487 13.24410980 58717
HULIANWANG DIGUI-25     
1 63692U 25086F   26197.30728028  .00000049  00000+0  79094-4 0  9997
2 63692  86.5047 303.2179 0001980 112.1764 247.9581 13.24410323 58713
HULIANWANG DIGUI-26     
1 63693U 25086G   26197.28458317  .00000025  00000+0  25257-4 0  9992
2 63693  86.5096 303.4144 0002196 117.9584 242.1772 13.24409372 58716
HULIANWANG DIGUI-27     
1 63694U 25086H   26197.31480736  .00000057  00000+0  98384-4 0  9993
2 63694  86.5057 303.2620 0002044 114.0345 246.1004 13.24412142 58717
